CELESTIS-17 & SHERPA-FX1
1 47486U 21006CB  26068.64311433  .00007207  00000+0  24301-3 0  9993
2 47486  97.2397 112.1052 0006630 178.1385 181.9882 15.30994801284065
STARLINK-35092          
1 65342U 25189V   26068.58420012  .00037187  00000+0  12608-2 0  9993
2 65342  53.1604 207.0206 0000949  87.1219 272.9890 15.30215946 31005
